{
  "type": "FeatureCollection",
  "features": [
    {
      "type": "Feature",
      "properties": {
        "norad_id": 33376,
        "name": "GALAXY 19 (G-19)",
        "group": "intelsat",
        "lat": 0.005186132102415851,
        "lon": 112.35467548391529,
        "alt_km": 35797.358146305945,
        "timestamp": "2025-12-24T07:45:05.866407+00:00",
        "meta_object_name": "GALAXY 19 (G-19)",
        "meta_object_id": "2008-045A",
        "meta_epoch": "2025-12-23T16:05:42.260928",
        "meta_mean_motion": 1.00270858,
        "meta_eccentricity": 0.00026541,
        "meta_inclination": 0.0449,
        "meta_ra_of_asc_node": 265.3019,
        "meta_arg_of_pericenter": 15.087,
        "meta_mean_anomaly": 316.4894,
        "meta_ephemeris_type": 0,
        "meta_classification_type": "U",
        "meta_norad_cat_id": 33376,
        "meta_element_set_no": 999,
        "meta_rev_at_epoch": 6314,
        "meta_bstar": 0,
        "meta_mean_motion_dot": -1.18e-06,
        "meta_mean_motion_ddot": 0,
        "tle_line1": "1 33376U 08045A   25357.67062802 -.00000118  00000+0  00000+0 0  9991",
        "tle_line2": "2 33376   0.0449 265.3019 0002654  15.0870 316.4894  1.00270858 63145"
      },
      "geometry": {
        "type": "Point",
        "coordinates": [
          112.35467548391529,
          0.005186132102415851
        ]
      }
    },
    {
      "type": "Feature",
      "properties": {
        "norad_id": 35493,
        "name": "FM-5",
        "group": "intelsat",
        "lat": 0.010782278263763531,
        "lon": 123.21868271506867,
        "alt_km": 35783.231229570556,
        "timestamp": "2025-12-24T07:45:05.866419+00:00",
        "meta_object_name": "FM-5",
        "meta_object_id": "2009-034A",
        "meta_epoch": "2025-12-23T19:34:14.466144",
        "meta_mean_motion": 1.00270184,
        "meta_eccentricity": 9.555e-05,
        "meta_inclination": 0.0218,
        "meta_ra_of_asc_node": 291.4107,
        "meta_arg_of_pericenter": 225.924,
        "meta_mean_anomaly": 142.6851,
        "meta_ephemeris_type": 0,
        "meta_classification_type": "U",
        "meta_norad_cat_id": 35493,
        "meta_element_set_no": 999,
        "meta_rev_at_epoch": 4488,
        "meta_bstar": 0,
        "meta_mean_motion_dot": -1.79e-06,
        "meta_mean_motion_ddot": 0,
        "tle_line1": "1 35493U 09034A   25357.81544521 -.00000179  00000+0  00000+0 0  9998",
        "tle_line2": "2 35493   0.0218 291.4107 0000955 225.9240 142.6851  1.00270184 44888"
      },
      "geometry": {
        "type": "Point",
        "coordinates": [
          123.21868271506867,
          0.010782278263763531
        ]
      }
    },
    {
      "type": "Feature",
      "properties": {
        "norad_id": 36097,
        "name": "INTELSAT 14 (IS-14)",
        "group": "intelsat",
        "lat": 0.01310150695037568,
        "lon": 164.3301901601557,
        "alt_km": 35792.42908719262,
        "timestamp": "2025-12-24T07:45:05.866431+00:00",
        "meta_object_name": "INTELSAT 14 (IS-14)",
        "meta_object_id": "2009-064A",
        "meta_epoch": "2025-12-23T21:28:41.480256",
        "meta_mean_motion": 1.0026934,
        "meta_eccentricity": 0.00025857,
        "meta_inclination": 0.0124,
        "meta_ra_of_asc_node": 3.369,
        "meta_arg_of_pericenter": 281.9203,
        "meta_mean_anomaly": 84.5532,
        "meta_ephemeris_type": 0,
        "meta_classification_type": "U",
        "meta_norad_cat_id": 36097,
        "meta_element_set_no": 999,
        "meta_rev_at_epoch": 5884,
        "meta_bstar": 0,
        "meta_mean_motion_dot": -2.53e-06,
        "meta_mean_motion_ddot": 0,
        "tle_line1": "1 36097U 09064A   25357.89492454 -.00000253  00000+0  00000+0 0  9990",
        "tle_line2": "2 36097   0.0124   3.3690 0002585 281.9203  84.5532  1.00269340 58847"
      },
      "geometry": {
        "type": "Point",
        "coordinates": [
          164.3301901601557,
          0.01310150695037568
        ]
      }
    },
    {
      "type": "Feature",
      "properties": {
        "norad_id": 36106,
        "name": "INTELSAT 15 (IS-15)",
        "group": "intelsat",
        "lat": -0.038897154061864204,
        "lon": -65.46866916794527,
        "alt_km": 35776.81362294675,
        "timestamp": "2025-12-24T07:45:05.866443+00:00",
        "meta_object_name": "INTELSAT 15 (IS-15)",
        "meta_object_id": "2009-067A",
        "meta_epoch": "2025-12-23T22:05:52.918368",
        "meta_mean_motion": 1.00270944,
        "meta_eccentricity": 0.00022846,
        "meta_inclination": 0.0165,
        "meta_ra_of_asc_node": 21.0753,
        "meta_arg_of_pericenter": 263.8363,
        "meta_mean_anomaly": 224.4226,
        "meta_ephemeris_type": 0,
        "meta_classification_type": "U",
        "meta_norad_cat_id": 36106,
        "meta_element_set_no": 999,
        "meta_rev_at_epoch": 3947,
        "meta_bstar": 0,
        "meta_mean_motion_dot": -1.64e-06,
        "meta_mean_motion_ddot": 0,
        "tle_line1": "1 36106U 09067A   25357.92075137 -.00000164  00000+0  00000+0 0  9994",
        "tle_line2": "2 36106   0.0165  21.0753 0002284 263.8363 224.4226  1.00270944 39477"
      },
      "geometry": {
        "type": "Point",
        "coordinates": [
          -65.46866916794527,
          -0.038897154061864204
        ]
      }
    },
    {
      "type": "Feature",
      "properties": {
        "norad_id": 36131,
        "name": "DIRECTV 12",
        "group": "intelsat",
        "lat": 0.013539969157355872,
        "lon": 106.65538804800318,
        "alt_km": 35787.661672860646,
        "timestamp": "2025-12-24T07:45:05.866454+00:00",
        "meta_object_name": "DIRECTV 12",
        "meta_object_id": "2009-075A",
        "meta_epoch": "2025-12-23T09:13:01.347168",
        "meta_mean_motion": 1.0027066,
        "meta_eccentricity": 4.984e-05,
        "meta_inclination": 0.0172,
        "meta_ra_of_asc_node": 109.5707,
        "meta_arg_of_pericenter": 230.4139,
        "meta_mean_anomaly": 147.732,
        "meta_ephemeris_type": 0,
        "meta_classification_type": "U",
        "meta_norad_cat_id": 36131,
        "meta_element_set_no": 999,
        "meta_rev_at_epoch": 4479,
        "meta_bstar": 0,
        "meta_mean_motion_dot": -8.2e-07,
        "meta_mean_motion_ddot": 0,
        "tle_line1": "1 36131U 09075A   25357.38404337 -.00000082  00000+0  00000+0 0  9998",
        "tle_line2": "2 36131   0.0172 109.5707 0000498 230.4139 147.7320  1.00270660 44798"
      },
      "geometry": {
        "type": "Point",
        "coordinates": [
          106.65538804800318,
          0.013539969157355872
        ]
      }
    },
    {
      "type": "Feature",
      "properties": {
        "norad_id": 36397,
        "name": "INTELSAT 16 (IS-16)",
        "group": "intelsat",
        "lat": 0.014494795891566692,
        "lon": 133.16338707470874,
        "alt_km": 35791.47799925117,
        "timestamp": "2025-12-24T07:45:05.866466+00:00",
        "meta_object_name": "INTELSAT 16 (IS-16)",
        "meta_object_id": "2010-006A",
        "meta_epoch": "2025-12-23T12:46:10.935264",
        "meta_mean_motion": 1.00272728,
        "meta_eccentricity": 0.00018836,
        "meta_inclination": 0.0115,
        "meta_ra_of_asc_node": 325.676,
        "meta_arg_of_pericenter": 301.9136,
        "meta_mean_anomaly": 300.0848,
        "meta_ephemeris_type": 0,
        "meta_classification_type": "U",
        "meta_norad_cat_id": 36397,
        "meta_element_set_no": 999,
        "meta_rev_at_epoch": 5789,
        "meta_bstar": 0,
        "meta_mean_motion_dot": -2.24e-06,
        "meta_mean_motion_ddot": 0,
        "tle_line1": "1 36397U 10006A   25357.53207101 -.00000224  00000+0  00000+0 0  9993",
        "tle_line2": "2 36397   0.0115 325.6760 0001883 301.9136 300.0848  1.00272728 57890"
      },
      "geometry": {
        "type": "Point",
        "coordinates": [
          133.16338707470874,
          0.014494795891566692
        ]
      }
    },
    {
      "type": "Feature",
      "properties": {
        "norad_id": 37185,
        "name": "XM-5",
        "group": "intelsat",
        "lat": 0.018318599076924454,
        "lon": 94.15378148858849,
        "alt_km": 35781.09082979289,
        "timestamp": "2025-12-24T07:45:05.866478+00:00",
        "meta_object_name": "XM-5",
        "meta_object_id": "2010-053A",
        "meta_epoch": "2025-12-23T09:09:39.170304",
        "meta_mean_motion": 1.00270513,
        "meta_eccentricity": 0.00022311,
        "meta_inclination": 0.0683,
        "meta_ra_of_asc_node": 270.2666,
        "meta_arg_of_pericenter": 239.6694,
        "meta_mean_anomaly": 324.4602,
        "meta_ephemeris_type": 0,
        "meta_classification_type": "U",
        "meta_norad_cat_id": 37185,
        "meta_element_set_no": 999,
        "meta_rev_at_epoch": 5572,
        "meta_bstar": 0,
        "meta_mean_motion_dot": -2e-08,
        "meta_mean_motion_ddot": 0,
        "tle_line1": "1 37185U 10053A   25357.38170336 -.00000002  00000+0  00000+0 0  9997",
        "tle_line2": "2 37185   0.0683 270.2666 0002231 239.6694 324.4602  1.00270513 55728"
      },
      "geometry": {
        "type": "Point",
        "coordinates": [
          94.15378148858849,
          0.018318599076924454
        ]
      }
    }
  ]
}